#cP2021  7 31 12  0  0.00000000     192 ORBIT   JGS FIT  QSS
## 2168 561600.00000000   900.00000000 59426 0.5000000000000
+   29   G01G02G03G05G06G07G08G09G10G12G15G16G17G19G20G21G22
+        G24G25G26G27G29G30G31G32J01J02J03J07  0  0  0  0  0
+          0  0  0  0  0  0  0  0  0  0  0  0  0  0  0  0  0
+          0  0  0  0  0  0  0  0  0  0  0  0  0  0  0  0  0
+          0  0  0  0  0  0  0  0  0  0  0  0  0  0  0  0  0
++         3  4  3  4  3  3  3  3  4  4  4  4  3  3  4  3  3
++         4  4  4  4  4  3  4  4  5  5  5  9  0  0  0  0  0
++         0  0  0  0  0  0  0  0  0  0  0  0  0  0  0  0  0
++         0  0  0  0  0  0  0  0  0  0  0  0  0  0  0  0  0
++         0  0  0  0  0  0  0  0  0  0  0  0  0  0  0  0  0
%c M  cc QZS ccc cccc cccc cccc cccc ccccc ccccc ccccc ccccc
%c cc cc ccc ccc cccc cccc cccc cccc ccccc ccccc ccccc ccccc
%f  1.2500000  1.025000000  0.00000000000  0.000000000000000
%f  0.0000000  0.000000000  0.00000000000  0.000000000000000
%i    0    0    0    0      0      0      0      0         0
%i    0    0    0    0      0      0      0      0         0
/* PROGRAM: POCSEL v.785, DATE: 2021/08/01 16:01:24 UTC     
/* Comment line1                                            
/* Comment line2                                            
/*                                                          
*  2021  7 31 21  0  0.00000000
PG01 -11714.259319  21100.363658 -10962.875008    611.343957 10  9  7 131       
PG02  20760.130558 -12247.829428 -10576.257554   -623.362816  9 10 11 135       
PG03  -5849.190948  13941.493109 -21925.646604   -238.466396 10  7  8 132       
PG05  17945.308248  -8357.485553  17625.433447    -49.661249 11  9 10 134       
PG06  18536.614377   -325.121965 -18984.421522     48.591251  8 11 10 135       
PG07   2411.460991  17475.692975  20075.058835    215.081661  9 10  7 131       
PG08  -8430.229232  17176.017864  18274.980169    -30.869377  9  7 10 131       
PG09   7317.264313  25510.351392    637.447244   -357.434886  9  9  8 131       
PG10 -22684.844205 -11895.676714   7663.157516   -173.252446  8 10 10 133       
PG12   6954.736124 -13454.511957 -22062.978653    -76.450957 12  9  9 135       
PG15   6827.007134 -18442.076611  17318.697098   -131.611368 10  9 10 134       
PG16 -22643.379336   1406.746765  13931.322249   -366.208300 10  9  7 131       
PG17  12556.349285  18968.359415 -13276.616427    482.352793  8 10  7 132       
PG19  14818.230939  10464.479739 -19731.326104     33.635374  8 12  7 135       
PG20  25081.792048  -2514.388471   7901.350409    519.893786 10 10 10 134       
PG21 -16596.348966  20246.115195  -1520.188160    134.590687 10  8  8 131       
PG22 -13614.777782  11921.387550 -19198.647423   -549.636575 10  8  7 132       
PG24  13799.030532 -21761.267577  -5752.422522    193.911057 12  9 11 135       
PG25  -5825.474735 -16455.683319 -20353.805007    183.265988 12  8 10 135       
PG26 -26231.167139  -3823.707006   3210.047003    117.261837  9 10  9 132       
PG27 -13566.799117   6372.294005  21718.803205   -171.437643  8  9  9 131       
PG29  -3895.003840 -26222.957705   -959.914690   -389.071021 11  9 11 135       
PG30  13555.414183   8728.597654  21200.912133   -457.143499  8 10  9 133       
PG31 -20145.124522   1662.235615 -17551.051993   -131.746048  8 10 10 132       
PG32 -15124.575398 -15584.772339 -15292.732974     10.791239  8 11  9 135       
PJ01 -21147.725117  19887.952772 -26009.537937   -428.442654 15 14 14 132       
PJ02 -30758.637726  22721.263425  22626.908931     -1.181412 15 14 12 132       
PJ03 -28616.432737  27501.808899  19428.258986     -0.460386 14 15 11 131       
PJ07 -25406.415508  33655.356060     -5.135114      0.003299 28 27 12 131       
*  2021  7 31 21 15  0.00000000
PG01 -12602.894969  21734.349603  -8332.723301    611.333571 10  8  7 131       
PG02  20009.017424 -11003.246604 -12968.597397   -623.365379  8 10 11 135       
PG03  -8231.369001  13306.712882 -21540.453635   -238.477833  9  7  8 132       
PG05  19806.397836  -7796.100309  15828.897841    -49.662281 10 10 10 134       
PG06  17026.124904   1346.747534 -20299.416922     48.596656  8 10 10 135       
PG07    786.907706  18922.983190  18785.152913    215.089492  9  9  6 131       
PG08  -9192.554934  15126.501641  19690.953173    -30.870657  9  8  9 131       
PG09   7027.637098  25511.564537  -2203.562104   -357.436036  9  8  8 132       
PG10 -21666.402567 -11834.970227  10271.984366   -173.259409  8  9 10 133       
PG12   9267.657207 -12658.234715 -21664.277595    -76.456210 12  9  9 135       
PG15   7844.042617 -16532.435263  18758.466743   -131.608942 10  9 10 134       
PG16 -23988.811279    770.142097  11614.970803   -366.213645  9  9  8 131       
PG17  12695.999590  20411.793768 -10860.303735    482.358522  8 10  7 132       
PG19  15090.978443  12559.123244 -18236.808816     33.639964  8 11  7 134       
PG20  25808.273872  -2119.466215   5210.726444    519.893327  9 10 10 134       
PG21 -16885.932564  20114.449441   1360.710810    134.592785  9  8  8 131       
PG22 -15732.418807  11437.500207 -17820.214531   -549.627970 10  8  7 132       
PG24  14376.718065 -21903.221198  -2986.944027    193.922243 11  9 11 135       
PG25  -3557.486415 -15959.141430 -21240.233635    183.271971 12  8  9 135       
PG26 -26382.201831  -4149.393205    419.901197    117.265894  9 10  9 132       
PG27 -14284.946476   3946.128092  21865.250263   -171.442748  8  9  8 131       
PG29  -3651.164998 -25998.249083  -3847.022565   -389.076308 11  9 11 135       
PG30  11834.243413  10446.855230  21432.474661   -457.147321  8 10  9 133       
PG31 -18755.531811    129.300646 -19068.286346   -131.747942  8 10  9 133       
PG32 -15400.935910 -17212.554551 -13152.282936     10.789069  8 11  9 135       
PJ01 -21806.238969  19025.323054 -26091.796335   -428.450821 15 14 14 132       
PJ02 -31029.851185  23289.801436  21363.164594     -1.181650 15 14 12 132       
PJ03 -28010.461568  27409.867097  20730.660070     -0.460565 14 15 11 131       
PJ07 -25405.946892  33655.521875     -7.322084      0.003378 28 27 12 131       
*  2021  7 31 21 30  0.00000000
PG01 -13255.051183  22184.737320  -5557.716871    611.323233  9  8  7 131       
PG02  19167.553403  -9505.238940 -15129.997611   -623.367746  8 10 10 136       
PG03 -10582.340762  12812.648607 -20787.255439   -238.489238  9  7  7 132       
PG05  21475.328751  -7365.401651  13758.894009    -49.663505 10 10 10 135       
PG06  15526.128693   3198.978625 -21263.870307     48.602110  8 10  9 135       
PG07   -659.894284  20331.693620  17176.177179    215.096957  9  9  6 131       
PG08 -10109.739976  12989.372120  20764.920859    -30.872552  8  8  8 131       
PG09   6628.470284  25227.828442  -5006.621274   -357.437067  9  8  8 132       
PG10 -20367.516366 -11777.616280  12707.552951   -173.266226  9  9  9 133       
PG12  11559.341887 -12005.534358 -20900.590628    -76.460500 12  9  9 135       
PG15   9010.535362 -14540.895314  19862.201585   -131.606337 10  9  9 136       
PG16 -25102.599256    285.336551   9101.008619   -366.219363  8  9  8 131       
PG17  12837.610437  21565.516913  -8253.147674    482.363226  8  9  8 132       
PG19  15437.807984  14456.345313 -16436.680324     33.644417  8 11  8 133       
PG20  26242.381438  -1772.810950   2428.926383    519.893598  8 10 10 134       
PG21 -16981.853885  19737.532632   4217.559369    134.594747  9  8  8 131       
PG22 -17697.047267  11069.996632 -16128.804923   -549.619128  9  8  7 132       
PG24  14759.437386 -21816.861143   -168.965688    193.933607 11  8 11 136       
PG25  -1186.883570 -15568.623420 -21771.069677    183.277912 12  8  9 135       
PG26 -26239.004684  -4422.105000  -2377.355897    117.269961  8 10  9 133       
PG27 -15129.967333   1570.536285  21629.229715   -171.447870  8  9  8 131       
PG29  -3310.726033 -25474.429987  -6667.725082   -389.081539 11  8 11 137       
PG30  10193.035362  12252.228458  21297.659529   -457.151185  8 10  8 132       
PG31 -17343.904857  -1589.342853 -20264.182574   -131.749867  8 10  9 133       
PG32 -15675.737796 -18582.215640 -10785.948653     10.786925  8 10  9 137       
PJ01 -22548.428630  18232.853263 -26031.725851   -428.458958 14 15 13 132       
PJ02 -31241.692898  23903.880867  20020.055400     -1.181903 14 14 12 132       
PJ03 -27437.485033  27256.962600  21956.280166     -0.460609 14 15 11 131       
PJ07 -25405.487988  33655.665852     -9.475135      0.003593 28 27 12 131       
EOF
